ORBCOMM FM115           
1 41186U 15081H   25070.89684871  .00001407  00000+0  31114-3 0  9994
2 41186  46.9978 142.1861 0001666 288.0845  71.9861 14.62187966493538
ORBCOMM FM108           
1 41187U 15081J   25070.65947611  .00001628  00000+0  38852-3 0  9994
2 41187  47.0042 207.4741 0003507 224.8342 135.2260 14.57884868492569
ORBCOMM FM117           
1 41188U 15081K   25070.76279885  .00001508  00000+0  36246-3 0  9990
2 41188  47.0004 205.7811 0003942 231.8701 128.1830 14.57883550492625
ORBCOMM FM116           
1 41189U 15081L   25070.89073049  .00001414  00000+0  34225-3 0  9990
2 41189  47.0022 295.0407 0001662 309.1958  50.8779 14.57877318491457
